{"type": "FeatureCollection", "features": [{"type": "Feature", "properties": {"norad_id": 28890, "name": "BEIJING 1", "group": "dmc", "lat": -60.32222217561163, "lon": -72.64384077046891, "alt_km": 695.4985257849794, "timestamp": "2025-12-20T14:38:01.625112+00:00", "meta": {"OBJECT_NAME": "BEIJING 1", "OBJECT_ID": "2005-043A", "EPOCH": "2025-12-20T06:58:17.593824", "MEAN_MOTION": 14.6337293, "ECCENTRICITY": 0.00156715, "INCLINATION": 98.2657, "RA_OF_ASC_NODE": 121.8151, "ARG_OF_PERICENTER": 119.0844, "MEAN_ANOMALY": 241.193, "EPHEMERIS_TYPE": 0, "CLASSIFICATION_TYPE": "U", "NORAD_CAT_ID": 28890, "ELEMENT_SET_NO": 999, "REV_AT_EPOCH": 7448, "BSTAR": 7.2758319e-05, "MEAN_MOTION_DOT": 3.28e-06, "MEAN_MOTION_DDOT": 0}, "tle": {"line1": "1 28890U 05043A   25354.29048141  .00000328  00000+0  72758-4 0  9992", "line2": "2 28890  98.2657 121.8151 0015671 119.0844 241.1930 14.63372930 74483"}}, "geometry": {"type": "Point", "coordinates": [-72.64384077046891, -60.32222217561163]}}, {"type": "Feature", "properties": {"norad_id": 33320, "name": "HUANJING 1A (HJ-1A)", "group": "dmc", "lat": 63.6311706473328, "lon": 178.31884529091855, "alt_km": 616.11215854277, "timestamp": "2025-12-20T14:38:01.625136+00:00", "meta": {"OBJECT_NAME": "HUANJING 1A (HJ-1A)", "OBJECT_ID": "2008-041A", "EPOCH": "2025-12-20T06:01:21.927936", "MEAN_MOTION": 14.83415904, "ECCENTRICITY": 0.00196533, "INCLINATION": 97.6535, "RA_OF_ASC_NODE": 342.2359, "ARG_OF_PERICENTER": 10.5324, "MEAN_ANOMALY": 349.6298, "EPHEMERIS_TYPE": 0, "CLASSIFICATION_TYPE": "U", "NORAD_CAT_ID": 33320, "ELEMENT_SET_NO": 999, "REV_AT_EPOCH": 93187, "BSTAR": 0.00014804029, "MEAN_MOTION_DOT": 1.168e-05, "MEAN_MOTION_DDOT": 0}, "tle": {"line1": "1 33320U 08041A   25354.25094824  .00001168  00000+0  14804-3 0  9992", "line2": "2 33320  97.6535 342.2359 0019653  10.5324 349.6298 14.83415904931873"}}, "geometry": {"type": "Point", "coordinates": [178.31884529091855, 63.6311706473328]}}, {"type": "Feature", "properties": {"norad_id": 33321, "name": "HUANJING 1B (HJ-1B)", "group": "dmc", "lat": -40.23083689117799, "lon": -7.223783664273939, "alt_km": 627.4960177134362, "timestamp": "2025-12-20T14:38:01.625151+00:00", "meta": {"OBJECT_NAME": "HUANJING 1B (HJ-1B)", "OBJECT_ID": "2008-041B", "EPOCH": "2025-12-20T06:43:07.921920", "MEAN_MOTION": 14.82841218, "ECCENTRICITY": 0.00380143, "INCLINATION": 97.6395, "RA_OF_ASC_NODE": 345.9411, "ARG_OF_PERICENTER": 51.9639, "MEAN_ANOMALY": 308.4997, "EPHEMERIS_TYPE": 0, "CLASSIFICATION_TYPE": "U", "NORAD_CAT_ID": 33321, "ELEMENT_SET_NO": 999, "REV_AT_EPOCH": 93189, "BSTAR": 0.00017947448, "MEAN_MOTION_DOT": 1.419e-05, "MEAN_MOTION_DDOT": 0}, "tle": {"line1": "1 33321U 08041B   25354.27995280  .00001419  00000+0  17947-3 0  9991", "line2": "2 33321  97.6395 345.9411 0038014  51.9639 308.4997 14.82841218931898"}}, "geometry": {"type": "Point", "coordinates": [-7.223783664273939, -40.23083689117799]}}, {"type": "Feature", "properties": {"norad_id": 33446, "name": "YAOGAN-4", "group": "dmc", "lat": -47.13537714869844, "lon": 96.00617452894978, "alt_km": 624.1838619390737, "timestamp": "2025-12-20T14:38:01.625164+00:00", "meta": {"OBJECT_NAME": "YAOGAN-4", "OBJECT_ID": "2008-061A", "EPOCH": "2025-12-20T05:30:38.316096", "MEAN_MOTION": 14.82702556, "ECCENTRICITY": 0.00131278, "INCLINATION": 97.9192, "RA_OF_ASC_NODE": 284.2555, "ARG_OF_PERICENTER": 296.9505, "MEAN_ANOMALY": 63.0367, "EPHEMERIS_TYPE": 0, "CLASSIFICATION_TYPE": "U", "NORAD_CAT_ID": 33446, "ELEMENT_SET_NO": 999, "REV_AT_EPOCH": 91914, "BSTAR": 0.00012360926, "MEAN_MOTION_DOT": 9.45e-06, "MEAN_MOTION_DDOT": 0}, "tle": {"line1": "1 33446U 08061A   25354.22961014  .00000945  00000+0  12361-3 0  9992", "line2": "2 33446  97.9192 284.2555 0013127 296.9505  63.0367 14.82702556919149"}}, "geometry": {"type": "Point", "coordinates": [96.00617452894978, -47.13537714869844]}}, {"type": "Feature", "properties": {"norad_id": 35681, "name": "DEIMOS-1", "group": "dmc", "lat": 40.81124129379858, "lon": -18.432075428728197, "alt_km": 641.5010370273058, "timestamp": "2025-12-20T14:38:01.625176+00:00", "meta": {"OBJECT_NAME": "DEIMOS-1", "OBJECT_ID": "2009-041A", "EPOCH": "2025-12-20T05:52:00.361632", "MEAN_MOTION": 14.74963387, "ECCENTRICITY": 0.00025947, "INCLINATION": 97.7143, "RA_OF_ASC_NODE": 154.4979, "ARG_OF_PERICENTER": 67.6781, "MEAN_ANOMALY": 292.4704, "EPHEMERIS_TYPE": 0, "CLASSIFICATION_TYPE": "U", "NORAD_CAT_ID": 35681, "ELEMENT_SET_NO": 999, "REV_AT_EPOCH": 88050, "BSTAR": 7.8531896e-05, "MEAN_MOTION_DOT": 4.8e-06, "MEAN_MOTION_DDOT": 0}, "tle": {"line1": "1 35681U 09041A   25354.24444863  .00000480  00000+0  78532-4 0  9991", "line2": "2 35681  97.7143 154.4979 0002594  67.6781 292.4704 14.74963387880501"}}, "geometry": {"type": "Point", "coordinates": [-18.432075428728197, 40.81124129379858]}}, {"type": "Feature", "properties": {"norad_id": 35683, "name": "UK-DMC 2", "group": "dmc", "lat": 7.009179822794257, "lon": -49.73719796532904, "alt_km": 644.9915028592786, "timestamp": "2025-12-20T14:38:01.625187+00:00", "meta": {"OBJECT_NAME": "UK-DMC 2", "OBJECT_ID": "2009-041C", "EPOCH": "2025-12-20T07:20:37.294080", "MEAN_MOTION": 14.7563726, "ECCENTRICITY": 0.00015196, "INCLINATION": 97.8563, "RA_OF_ASC_NODE": 128.995, "ARG_OF_PERICENTER": 94.2158, "MEAN_ANOMALY": 265.9225, "EPHEMERIS_TYPE": 0, "CLASSIFICATION_TYPE": "U", "NORAD_CAT_ID": 35683, "ELEMENT_SET_NO": 999, "REV_AT_EPOCH": 88018, "BSTAR": 0.0001193768, "MEAN_MOTION_DOT": 7.66e-06, "MEAN_MOTION_DDOT": 0}, "tle": {"line1": "1 35683U 09041C   25354.30598720  .00000766  00000+0  11938-3 0  9995", "line2": "2 35683  97.8563 128.9950 0001519  94.2158 265.9225 14.75637260880181"}}, "geometry": {"type": "Point", "coordinates": [-49.73719796532904, 7.009179822794257]}}, {"type": "Feature", "properties": {"norad_id": 40715, "name": "DMC3-FM1", "group": "dmc", "lat": 40.144989133589704, "lon": 48.04033753297588, "alt_km": 611.637423023637, "timestamp": "2025-12-20T14:38:01.625199+00:00", "meta": {"OBJECT_NAME": "DMC3-FM1", "OBJECT_ID": "2015-032A", "EPOCH": "2025-12-20T05:55:29.956800", "MEAN_MOTION": 14.85450654, "ECCENTRICITY": 0.00042255, "INCLINATION": 97.6689, "RA_OF_ASC_NODE": 221.1653, "ARG_OF_PERICENTER": 290.6583, "MEAN_ANOMALY": 69.4179, "EPHEMERIS_TYPE": 0, "CLASSIFICATION_TYPE": "U", "NORAD_CAT_ID": 40715, "ELEMENT_SET_NO": 999, "REV_AT_EPOCH": 56334, "BSTAR": 4.7418183e-05, "MEAN_MOTION_DOT": 3.57e-06, "MEAN_MOTION_DDOT": 0}, "tle": {"line1": "1 40715U 15032A   25354.24687450  .00000357  00000+0  47418-4 0  9995", "line2": "2 40715  97.6689 221.1653 0004225 290.6583  69.4179 14.85450654563349"}}, "geometry": {"type": "Point", "coordinates": [48.04033753297588, 40.144989133589704]}}, {"type": "Feature", "properties": {"norad_id": 40716, "name": "DMC3-FM2", "group": "dmc", "lat": 18.950283785276376, "lon": -139.68949961726236, "alt_km": 612.0320791008098, "timestamp": "2025-12-20T14:38:01.625209+00:00", "meta": {"OBJECT_NAME": "DMC3-FM2", "OBJECT_ID": "2015-032B", "EPOCH": "2025-12-20T06:27:52.746336", "MEAN_MOTION": 14.85455147, "ECCENTRICITY": 0.00047348, "INCLINATION": 97.6748, "RA_OF_ASC_NODE": 222.6362, "ARG_OF_PERICENTER": 297.233, "MEAN_ANOMALY": 62.8403, "EPHEMERIS_TYPE": 0, "CLASSIFICATION_TYPE": "U", "NORAD_CAT_ID": 40716, "ELEMENT_SET_NO": 999, "REV_AT_EPOCH": 56334, "BSTAR": 0.00012460853, "MEAN_MOTION_DOT": 1.023e-05, "MEAN_MOTION_DDOT": 0}, "tle": {"line1": "1 40716U 15032B   25354.26936049  .00001023  00000+0  12461-3 0  9999", "line2": "2 40716  97.6748 222.6362 0004734 297.2330  62.8403 14.85455147563346"}}, "geometry": {"type": "Point", "coordinates": [-139.68949961726236, 18.950283785276376]}}, {"type": "Feature", "properties": {"norad_id": 40717, "name": "DMC3-FM3", "group": "dmc", "lat": -79.79554993427615, "lon": -3.959563608256246, "alt_km": 617.2090850150444, "timestamp": "2025-12-20T14:38:01.625220+00:00", "meta": {"OBJECT_NAME": "DMC3-FM3", "OBJECT_ID": "2015-032C", "EPOCH": "2025-12-20T05:22:06.408192", "MEAN_MOTION": 14.85441669, "ECCENTRICITY": 0.00041169, "INCLINATION": 97.6804, "RA_OF_ASC_NODE": 224.2304, "ARG_OF_PERICENTER": 299.9718, "MEAN_ANOMALY": 60.1089, "EPHEMERIS_TYPE": 0, "CLASSIFICATION_TYPE": "U", "NORAD_CAT_ID": 40717, "ELEMENT_SET_NO": 999, "REV_AT_EPOCH": 56334, "BSTAR": 7.4530405e-05, "MEAN_MOTION_DOT": 5.91e-06, "MEAN_MOTION_DDOT": 0}, "tle": {"line1": "1 40717U 15032C   25354.22368528  .00000591  00000+0  74530-4 0  9992", "line2": "2 40717  97.6804 224.2304 0004116 299.9718  60.1089 14.85441669563342"}}, "geometry": {"type": "Point", "coordinates": [-3.959563608256246, -79.79554993427615]}}]}